OBJECT_NAME,OBJECT_ID,EPOCH,MEAN_MOTION,ECCENTRICITY,INCLINATION,RA_OF_ASC_NODE,ARG_OF_PERICENTER,MEAN_ANOMALY,EPHEMERIS_TYPE,CLASSIFICATION_TYPE,NORAD_CAT_ID,ELEMENT_SET_NO,REV_AT_EPOCH,BSTAR,MEAN_MOTION_DOT,MEAN_MOTION_DDOT
STARLINK-36124,2025-299V,2026-06-20T09:42:08.724096,15.27591880,.0002547,42.9982,309.0335,281.4587,78.5979,0,U,67121,999,2882,.5674E-3,.1539E-3,0
STARLINK-36188,2025-299W,2026-06-20T09:53:14.818848,15.27588268,.0002016,43.0015,309.0979,275.7993,84.2629,0,U,67122,999,2882,.46877E-3,.12663E-3,0
STARLINK-36151,2025-299X,2026-06-20T09:08:50.031168,15.27587552,.0002344,43.0062,308.8659,252.5386,107.5209,0,U,67123,999,2882,.49785E-3,.13466E-3,0
STARLINK-36195,2025-299Y,2026-06-20T10:11:32.148096,15.27593545,.0001011,43.0007,308.3303,225.6376,134.4393,0,U,67124,999,2883,.51233E-3,.13869E-3,0
STARLINK-36219,2025-299Z,2026-06-20T11:01:30.006048,15.27580139,.0001481,42.9996,308.5866,256.4214,103.6473,0,U,67125,999,2883,.6415E-3,.17432E-3,0
STARLINK-36223,2025-299AA,2026-06-20T10:50:23.843040,15.27594472,.0001971,43.0004,308.5256,278.0213,82.0415,0,U,67126,999,2883,.72035E-3,.19622E-3,0
STARLINK-36164,2025-299AB,2026-06-20T10:30:02.853792,15.27593256,.0001612,43.0016,308.4241,267.9046,92.1621,0,U,67127,999,2883,.5056E-3,.13682E-3,0
STARLINK-35685,2025-299AC,2026-06-20T10:33:44.558784,15.27589772,.0002248,43.0026,308.4496,277.4930,82.5666,0,U,67128,999,2883,.5056E-3,.13681E-3,0
STARLINK-36214,2025-299AD,2026-06-20T10:06:12.024864,15.27592736,.0002416,43.0010,309.1628,284.3590,75.6994,0,U,67129,999,2882,.963E-3,.26343E-3,0
STARLINK-36194,2025-299AE,2026-06-20T09:21:47.467872,15.27596620,.0002297,43.0011,308.9292,284.3817,75.6779,0,U,67130,999,2882,.88067E-3,.24064E-3,0
ZIYUAN 3-04 (ZY 3-04),2025-300A,2026-06-20T10:51:38.496096,15.21357084,.0006054,97.4730,249.3314,305.4427,54.6243,0,U,67131,999,2833,.14629E-3,.3208E-4,0
KUIPER-00144,2025-301A,2026-06-20T09:59:38.454720,14.79928753,.0000609,51.9030,321.3588,101.6797,258.4234,0,U,67133,999,2908,.37609E-3,.2647E-4,0
KUIPER-00164,2025-301B,2026-06-19T15:51:16.861248,14.76581939,.00007252,51.9045,336.5113,210.8602,149.2316,0,U,67134,999,2898,.27386247E-3,.1714E-4,0
KUIPER-00175,2025-301C,2026-06-20T09:07:37.303104,14.92275647,.0000825,51.8952,317.7666,64.7635,295.3418,0,U,67135,999,2920,.3873E-3,.3749E-4,0
KUIPER-00179,2025-301D,2026-06-20T11:21:23.049216,14.79938684,.0000634,51.8989,331.0841,117.5061,242.5966,0,U,67136,999,2913,.39695E-3,.2807E-4,0
KUIPER-00181,2025-301E,2026-06-20T11:01:39.086688,14.79878770,.0000773,51.9029,343.6706,94.6845,265.4206,0,U,67137,999,2893,.38162E-3,.2686E-4,0
KUIPER-00183,2025-301F,2026-06-20T03:33:46.118880,14.92718450,.000968,51.8962,319.5887,48.3299,311.8496,0,U,67138,999,2925,.38387885E-3,.3758E-4,0
KUIPER-00184,2025-301G,2026-06-20T04:11:34.203552,14.79933554,.0000408,51.9006,327.4060,119.8306,240.2697,0,U,67139,999,2925,.36169827E-3,.2537E-4,0
KUIPER-00186,2025-301H,2026-06-20T10:13:21.439776,14.79930412,.0000604,51.9029,343.8320,103.8232,256.2797,0,U,67140,999,2877,.12986E-3,.769E-5,0
KUIPER-00187,2025-301J,2026-06-20T05:17:44.890080,14.79933788,.0000524,51.9043,347.2621,107.5256,252.5763,0,U,67141,999,2870,.3681E-3,.2586E-4,0
KUIPER-00188,2025-301K,2026-06-20T10:11:20.700096,14.79931312,.0000556,51.9030,313.9465,113.4698,246.6323,0,U,67142,999,2918,.13439E-3,.804E-5,0
KUIPER-00191,2025-301L,2026-06-20T11:09:44.426592,14.79933239,.0000622,51.9016,338.6747,100.3181,259.7851,0,U,67143,999,2887,.3981E-3,.2815E-4,0
KUIPER-00196,2025-301M,2026-06-20T10:00:01.998720,14.81047384,.0001321,51.8978,294.7502,97.6164,236.1204,0,U,67144,999,560,-.54118E-2,-.42327E-3,0
KUIPER-00204,2025-301N,2026-06-19T18:51:50.335200,14.79901106,.00003654,51.9018,314.1622,164.5992,195.4982,0,U,67145,999,2924,.41140067E-3,.2914E-4,0
KUIPER-00210,2025-301P,2026-06-20T03:52:08.461056,14.79936706,.00005572,51.9000,339.9722,103.8870,256.2154,0,U,67146,999,2897,.4192258E-3,.2976E-4,0
KUIPER-00221,2025-301Q,2026-06-20T04:29:07.105056,14.79935604,.0000779,51.9026,347.3768,113.2531,246.8513,0,U,67147,999,2870,.62047369E-4,.252E-5,0
KUIPER-00232,2025-301R,2026-06-20T04:03:48.333888,14.79935527,.00006014,51.9006,332.4876,113.3506,246.7520,0,U,67148,999,2890,.45027596E-3,.3213E-4,0
KUIPER-00241,2025-301S,2026-06-20T11:05:51.842112,14.79931660,.0000633,51.9034,341.1810,108.6340,251.4691,0,U,67149,999,2914,.19835E-3,.1291E-4,0
KUIPER-00245,2025-301T,2026-06-20T04:25:14.240640,14.79937462,.00006334,51.9033,349.9205,130.6700,229.4318,0,U,67150,999,2866,.28118473E-3,.1923E-4,0
KUIPER-00246,2025-301U,2026-06-20T10:28:53.421024,14.79929943,.0000615,51.9008,333.7632,105.1080,254.9950,0,U,67151,999,2893,.39852E-3,.2818E-4,0
