STARLINK-36124          
1 67121U 25299V   26171.40426764  .00015390  00000+0  56740-3 0  9996
2 67121  42.9982 309.0335 0002547 281.4587  78.5979 15.27591880 28820
STARLINK-36188          
1 67122U 25299W   26171.41197707  .00012663  00000+0  46877-3 0  9990
2 67122  43.0015 309.0979 0002016 275.7993  84.2629 15.27588268 28824
STARLINK-36151          
1 67123U 25299X   26171.38113462  .00013466  00000+0  49785-3 0  9996
2 67123  43.0062 308.8659 0002344 252.5386 107.5209 15.27587552 28820
STARLINK-36195          
1 67124U 25299Y   26171.42467764  .00013869  00000+0  51233-3 0  9997
2 67124  43.0007 308.3303 0001011 225.6376 134.4393 15.27593545 28834
STARLINK-36219          
1 67125U 25299Z   26171.45937507  .00017432  00000+0  64150-3 0  9990
2 67125  42.9996 308.5866 0001481 256.4214 103.6473 15.27580139 28832
STARLINK-36223          
1 67126U 25299AA  26171.45166485  .00019622  00000+0  72035-3 0  9994
2 67126  43.0004 308.5256 0001971 278.0213  82.0415 15.27594472 28832
STARLINK-36164          
1 67127U 25299AB  26171.43753303  .00013682  00000+0  50560-3 0  9993
2 67127  43.0016 308.4241 0001612 267.9046  92.1621 15.27593256 28832
STARLINK-35685          
1 67128U 25299AC  26171.44009906  .00013681  00000+0  50560-3 0  9997
2 67128  43.0026 308.4496 0002248 277.4930  82.5666 15.27589772 28830
STARLINK-36214          
1 67129U 25299AD  26171.42097251  .00026343  00000+0  96300-3 0  9997
2 67129  43.0010 309.1628 0002416 284.3590  75.6994 15.27592736 28825
STARLINK-36194          
1 67130U 25299AE  26171.39013273  .00024064  00000+0  88067-3 0  9996
2 67130  43.0011 308.9292 0002297 284.3817  75.6779 15.27596620 28828
ZIYUAN 3-04 (ZY 3-04)   
1 67131U 25300A   26171.45252889  .00003208  00000+0  14629-3 0  9995
2 67131  97.4730 249.3314 0006054 305.4427  54.6243 15.21357084 28332
KUIPER-00144            
1 67133U 25301A   26171.41641730  .00002647  00000+0  37609-3 0  9990
2 67133  51.9030 321.3588 0000609 101.6797 258.4234 14.79928753 29088
KUIPER-00164            
1 67134U 25301B   26170.66061182  .00001714  00000+0  27386-3 0  9999
2 67134  51.9045 336.5113 0000725 210.8602 149.2316 14.76581939 28988
KUIPER-00175            
1 67135U 25301C   26171.38029286  .00003749  00000+0  38730-3 0  9994
2 67135  51.8952 317.7666 0000825  64.7635 295.3418 14.92275647 29208
KUIPER-00179            
1 67136U 25301D   26171.47318344  .00002807  00000+0  39695-3 0  9996
2 67136  51.8989 331.0841 0000634 117.5061 242.5966 14.79938684 29137
KUIPER-00181            
1 67137U 25301E   26171.45948017  .00002686  00000+0  38162-3 0  9994
2 67137  51.9029 343.6706 0000773  94.6845 265.4206 14.79878770 28939
KUIPER-00183            
1 67138U 25301F   26171.14845045  .00003758  00000+0  38388-3 0  9999
2 67138  51.8962 319.5887 0009680  48.3299 311.8496 14.92718450 29258
KUIPER-00184            
1 67139U 25301G   26171.17470143  .00002537  00000+0  36170-3 0  9997
2 67139  51.9006 327.4060 0000408 119.8306 240.2697 14.79933554 29259
KUIPER-00186            
1 67140U 25301H   26171.42594259  .00000769  00000+0  12986-3 0  9996
2 67140  51.9029 343.8320 0000604 103.8232 256.2797 14.79930412 28770
KUIPER-00187            
1 67141U 25301J   26171.22065845  .00002586  00000+0  36810-3 0  9990
2 67141  51.9043 347.2621 0000524 107.5256 252.5763 14.79933788 28701
KUIPER-00188            
1 67142U 25301K   26171.42454514  .00000804  00000+0  13439-3 0  9991
2 67142  51.9030 313.9465 0000556 113.4698 246.6323 14.79931312 29185
KUIPER-00191            
1 67143U 25301L   26171.46509753  .00002815  00000+0  39810-3 0  9997
2 67143  51.9016 338.6747 0000622 100.3181 259.7851 14.79933239 28879
KUIPER-00196            
1 67144U 25301M   26171.41668980 -.00042327  00000+0 -54118-2 0  9992
2 67144  51.8978 294.7502 0001321  97.6164 236.1204 14.81047384  5600
KUIPER-00204            
1 67145U 25301N   26170.78599925  .00002914  00000+0  41140-3 0  9992
2 67145  51.9018 314.1622 0000365 164.5992 195.4982 14.79901106 29241
KUIPER-00210            
1 67146U 25301P   26171.16120904  .00002976  00000+0  41923-3 0  9990
2 67146  51.9000 339.9722 0000557 103.8870 256.2154 14.79936706 28973
KUIPER-00221            
1 67147U 25301Q   26171.18688779  .00000252  00000+0  62047-4 0  9998
2 67147  51.9026 347.3768 0000779 113.2531 246.8513 14.79935604 28701
KUIPER-00232            
1 67148U 25301R   26171.16930942  .00003213  00000+0  45028-3 0  9998
2 67148  51.9006 332.4876 0000601 113.3506 246.7520 14.79935527 28905
KUIPER-00241            
1 67149U 25301S   26171.46240558  .00001291  00000+0  19835-3 0  9990
2 67149  51.9034 341.1810 0000633 108.6340 251.4691 14.79931660 29143
KUIPER-00245            
1 67150U 25301T   26171.18419260  .00001923  00000+0  28118-3 0  9995
2 67150  51.9033 349.9205 0000633 130.6700 229.4318 14.79937462 28666
KUIPER-00246            
1 67151U 25301U   26171.43672941  .00002818  00000+0  39852-3 0  9992
2 67151  51.9008 333.7632 0000615 105.1080 254.9950 14.79929943 28932
